{
  "type": "FeatureCollection",
  "features": [
    {
      "type": "Feature",
      "properties": {
        "norad_id": 40118,
        "name": "GAOFEN-2",
        "group": "resource",
        "lat": -69.88425546717693,
        "lon": 79.82617106160903,
        "alt_km": 640.1188067773583,
        "timestamp": "2025-12-23T22:42:32.635217+00:00",
        "meta_object_name": "GAOFEN-2",
        "meta_object_id": "2014-049A",
        "meta_epoch": "2025-12-23T06:48:45.415008",
        "meta_mean_motion": 14.80627174,
        "meta_eccentricity": 0.00087937,
        "meta_inclination": 98.0371,
        "meta_ra_of_asc_node": 56.4705,
        "meta_arg_of_pericenter": 83.8964,
        "meta_mean_anomaly": 276.325,
        "meta_ephemeris_type": 0,
        "meta_classification_type": "U",
        "meta_norad_cat_id": 40118,
        "meta_element_set_no": 999,
        "meta_rev_at_epoch": 61320,
        "meta_bstar": 0.00014331332,
        "meta_mean_motion_dot": 1.047e-05,
        "meta_mean_motion_ddot": 0,
        "tle_line1": "1 40118U 14049A   25357.28385897  .00001047  00000+0  14331-3 0  9990",
        "tle_line2": "2 40118  98.0371  56.4705 0008793  83.8964 276.3250 14.80627174613203"
      },
      "geometry": {
        "type": "Point",
        "coordinates": [
          79.82617106160903,
          -69.88425546717693
        ]
      }
    },
    {
      "type": "Feature",
      "properties": {
        "norad_id": 40143,
        "name": "YAOGAN-21",
        "group": "resource",
        "lat": -8.104146443800134,
        "lon": -140.25615945141809,
        "alt_km": 504.51599487178737,
        "timestamp": "2025-12-23T22:42:32.635227+00:00",
        "meta_object_name": "YAOGAN-21",
        "meta_object_id": "2014-053A",
        "meta_epoch": "2025-12-23T07:42:07.087104",
        "meta_mean_motion": 15.23776357,
        "meta_eccentricity": 0.00087119,
        "meta_inclination": 97.1739,
        "meta_ra_of_asc_node": 40.1734,
        "meta_arg_of_pericenter": 6.9257,
        "meta_mean_anomaly": 353.2099,
        "meta_ephemeris_type": 0,
        "meta_classification_type": "U",
        "meta_norad_cat_id": 40143,
        "meta_element_set_no": 999,
        "meta_rev_at_epoch": 62815,
        "meta_bstar": 0.00019519384,
        "meta_mean_motion_dot": 4.633e-05,
        "meta_mean_motion_ddot": 0,
        "tle_line1": "1 40143U 14053A   25357.32091536  .00004633  00000+0  19519-3 0  9999",
        "tle_line2": "2 40143  97.1739  40.1734 0008711   6.9257 353.2099 15.23776357628154"
      },
      "geometry": {
        "type": "Point",
        "coordinates": [
          -140.25615945141809,
          -8.104146443800134
        ]
      }
    },
    {
      "type": "Feature",
      "properties": {
        "norad_id": 40275,
        "name": "YAOGAN-22",
        "group": "resource",
        "lat": -76.85932372271101,
        "lon": -164.0704215585459,
        "alt_km": 1206.5385833074415,
        "timestamp": "2025-12-23T22:42:32.635237+00:00",
        "meta_object_name": "YAOGAN-22",
        "meta_object_id": "2014-063A",
        "meta_epoch": "2025-12-23T03:02:59.112384",
        "meta_mean_motion": 13.15523006,
        "meta_eccentricity": 0.00060672,
        "meta_inclination": 100.7429,
        "meta_ra_of_asc_node": 140.6935,
        "meta_arg_of_pericenter": 223.3805,
        "meta_mean_anomaly": 136.6829,
        "meta_ephemeris_type": 0,
        "meta_classification_type": "U",
        "meta_norad_cat_id": 40275,
        "meta_element_set_no": 999,
        "meta_rev_at_epoch": 53666,
        "meta_bstar": 0.00010140547,
        "meta_mean_motion_dot": -8e-08,
        "meta_mean_motion_ddot": 0,
        "tle_line1": "1 40275U 14063A   25357.12707306 -.00000008  00000+0  10141-3 0  9998",
        "tle_line2": "2 40275 100.7429 140.6935 0006067 223.3805 136.6829 13.15523006536660"
      },
      "geometry": {
        "type": "Point",
        "coordinates": [
          -164.0704215585459,
          -76.85932372271101
        ]
      }
    },
    {
      "type": "Feature",
      "properties": {
        "norad_id": 40298,
        "name": "ASNARO",
        "group": "resource",
        "lat": 68.632186973585,
        "lon": 54.31557091075953,
        "alt_km": 496.3294292235041,
        "timestamp": "2025-12-23T22:42:32.635248+00:00",
        "meta_object_name": "ASNARO",
        "meta_object_id": "2014-070A",
        "meta_epoch": "2025-12-23T06:36:01.068768",
        "meta_mean_motion": 15.19704806,
        "meta_eccentricity": 0.00057882,
        "meta_inclination": 97.3644,
        "meta_ra_of_asc_node": 72.9642,
        "meta_arg_of_pericenter": 94.0959,
        "meta_mean_anomaly": 266.0937,
        "meta_ephemeris_type": 0,
        "meta_classification_type": "U",
        "meta_norad_cat_id": 40298,
        "meta_element_set_no": 999,
        "meta_rev_at_epoch": 61729,
        "meta_bstar": 0.00064728004,
        "meta_mean_motion_dot": 0.00013776,
        "meta_mean_motion_ddot": 0,
        "tle_line1": "1 40298U 14070A   25357.27501237  .00013776  00000+0  64728-3 0  9997",
        "tle_line2": "2 40298  97.3644  72.9642 0005788  94.0959 266.0937 15.19704806617291"
      },
      "geometry": {
        "type": "Point",
        "coordinates": [
          54.31557091075953,
          68.632186973585
        ]
      }
    },
    {
      "type": "Feature",
      "properties": {
        "norad_id": 40310,
        "name": "YAOGAN-24",
        "group": "resource",
        "lat": 81.00446365753761,
        "lon": 13.553254315926555,
        "alt_km": 623.4648197097613,
        "timestamp": "2025-12-23T22:42:32.635258+00:00",
        "meta_object_name": "YAOGAN-24",
        "meta_object_id": "2014-072A",
        "meta_epoch": "2025-12-23T07:38:42.182592",
        "meta_mean_motion": 14.76195626,
        "meta_eccentricity": 0.00151518,
        "meta_inclination": 98.1231,
        "meta_ra_of_asc_node": 128.4687,
        "meta_arg_of_pericenter": 106.4936,
        "meta_mean_anomaly": 253.794,
        "meta_ephemeris_type": 0,
        "meta_classification_type": "U",
        "meta_norad_cat_id": 40310,
        "meta_element_set_no": 999,
        "meta_rev_at_epoch": 59777,
        "meta_bstar": 8.1278293e-05,
        "meta_mean_motion_dot": 5.1e-06,
        "meta_mean_motion_ddot": 0,
        "tle_line1": "1 40310U 14072A   25357.31854378  .00000510  00000+0  81278-4 0  9998",
        "tle_line2": "2 40310  98.1231 128.4687 0015151 106.4936 253.7940 14.76195626597774"
      },
      "geometry": {
        "type": "Point",
        "coordinates": [
          13.553254315926555,
          81.00446365753761
        ]
      }
    },
    {
      "type": "Feature",
      "properties": {
        "norad_id": 40336,
        "name": "CBERS 4",
        "group": "resource",
        "lat": -3.9415004265829654,
        "lon": 56.15750847953519,
        "alt_km": 777.0828972455038,
        "timestamp": "2025-12-23T22:42:32.635269+00:00",
        "meta_object_name": "CBERS 4",
        "meta_object_id": "2014-079A",
        "meta_epoch": "2025-12-23T07:40:19.487136",
        "meta_mean_motion": 14.35521669,
        "meta_eccentricity": 0.00018663,
        "meta_inclination": 98.3294,
        "meta_ra_of_asc_node": 54.9742,
        "meta_arg_of_pericenter": 101.1393,
        "meta_mean_anomaly": 259.0003,
        "meta_ephemeris_type": 0,
        "meta_classification_type": "U",
        "meta_norad_cat_id": 40336,
        "meta_element_set_no": 999,
        "meta_rev_at_epoch": 57872,
        "meta_bstar": 7.4146347e-05,
        "meta_mean_motion_dot": 1.71e-06,
        "meta_mean_motion_ddot": 0,
        "tle_line1": "1 40336U 14079A   25357.31966999  .00000171  00000+0  74146-4 0  9995",
        "tle_line2": "2 40336  98.3294  54.9742 0001866 101.1393 259.0003 14.35521669578723"
      },
      "geometry": {
        "type": "Point",
        "coordinates": [
          56.15750847953519,
          -3.9415004265829654
        ]
      }
    },
    {
      "type": "Feature",
      "properties": {
        "norad_id": 40362,
        "name": "YAOGAN-26",
        "group": "resource",
        "lat": 2.281636405994357,
        "lon": 178.5054216732074,
        "alt_km": 453.0381619159007,
        "timestamp": "2025-12-23T22:42:32.635279+00:00",
        "meta_object_name": "YAOGAN-26",
        "meta_object_id": "2014-088A",
        "meta_epoch": "2025-12-23T06:20:32.371584",
        "meta_mean_motion": 15.39662995,
        "meta_eccentricity": 0.00047207,
        "meta_inclination": 97.0643,
        "meta_ra_of_asc_node": 357.5642,
        "meta_arg_of_pericenter": 356.5887,
        "meta_mean_anomaly": 3.5327,
        "meta_ephemeris_type": 0,
        "meta_classification_type": "U",
        "meta_norad_cat_id": 40362,
        "meta_element_set_no": 999,
        "meta_rev_at_epoch": 61056,
        "meta_bstar": 0.00069602247,
        "meta_mean_motion_dot": 0.00027458,
        "meta_mean_motion_ddot": 0,
        "tle_line1": "1 40362U 14088A   25357.26426356  .00027458  00000+0  69602-3 0  9993",
        "tle_line2": "2 40362  97.0643 357.5642 0004720 356.5887   3.5327 15.39662995610566"
      },
      "geometry": {
        "type": "Point",
        "coordinates": [
          178.5054216732074,
          2.281636405994357
        ]
      }
    }
  ]
}